[{"OBJECT_NAME":"ONEWEB-0217","OBJECT_ID":"2021-031AM","EPOCH":"2025-09-28T05:13:58.286208","MEAN_MOTION":13.14501873,"ECCENTRICITY":0.00019551,"INCLINATION":87.9078,"RA_OF_ASC_NODE":341.8516,"ARG_OF_PERICENTER":108.7487,"MEAN_ANOMALY":251.3855,"EPHEMERIS_TYPE":0,"CLASSIFICATION_TYPE":"U","NORAD_CAT_ID":48245,"ELEMENT_SET_NO":999,"REV_AT_EPOCH":21376,"BSTAR":-5.5373856e-5,"MEAN_MOTION_DOT":-8.0e-8,"MEAN_MOTION_DDOT":0},{"OBJECT_NAME":"ONEWEB-0211","OBJECT_ID":"2021-045A","EPOCH":"2025-09-28T03:24:00.151488","MEAN_MOTION":13.16085406,"ECCENTRICITY":0.000163,"INCLINATION":87.901,"RA_OF_ASC_NODE":311.4233,"ARG_OF_PERICENTER":103.6686,"MEAN_ANOMALY":256.4626,"EPHEMERIS_TYPE":0,"CLASSIFICATION_TYPE":"U","NORAD_CAT_ID":48767,"ELEMENT_SET_NO":999,"REV_AT_EPOCH":20997,"BSTAR":-0.00029056893,"MEAN_MOTION_DOT":-9.7e-7,"MEAN_MOTION_DDOT":0},{"OBJECT_NAME":"ONEWEB-0223","OBJECT_ID":"2021-045B","EPOCH":"2025-09-28T02:23:35.445120","MEAN_MOTION":13.15547808,"ECCENTRICITY":0.00014888,"INCLINATION":87.9001,"RA_OF_ASC_NODE":311.4868,"ARG_OF_PERICENTER":107.3889,"MEAN_ANOMALY":252.7404,"EPHEMERIS_TYPE":0,"CLASSIFICATION_TYPE":"U","NORAD_CAT_ID":48768,"ELEMENT_SET_NO":999,"REV_AT_EPOCH":20994,"BSTAR":0.00048950609,"MEAN_MOTION_DOT":1.97e-6,"MEAN_MOTION_DDOT":0},{"OBJECT_NAME":"ONEWEB-0230","OBJECT_ID":"2021-045C","EPOCH":"2025-09-28T03:32:01.501440","MEAN_MOTION":13.15549638,"ECCENTRICITY":0.00017898,"INCLINATION":87.8995,"RA_OF_ASC_NODE":311.5095,"ARG_OF_PERICENTER":90.0666,"MEAN_ANOMALY":270.067,"EPHEMERIS_TYPE":0,"CLASSIFICATION_TYPE":"U","NORAD_CAT_ID":48769,"ELEMENT_SET_NO":999,"REV_AT_EPOCH":21021,"BSTAR":-0.00021090321,"MEAN_MOTION_DOT":-6.7e-7,"MEAN_MOTION_DDOT":0},{"OBJECT_NAME":"ONEWEB-0237","OBJECT_ID":"2021-045D","EPOCH":"2025-09-28T01:26:32.214912","MEAN_MOTION":13.15546873,"ECCENTRICITY":0.00015643,"INCLINATION":87.9003,"RA_OF_ASC_NODE":311.5237,"ARG_OF_PERICENTER":98.5917,"MEAN_ANOMALY":261.539,"EPHEMERIS_TYPE":0,"CLASSIFICATION_TYPE":"U","NORAD_CAT_ID":48770,"ELEMENT_SET_NO":999,"REV_AT_EPOCH":20992,"BSTAR":-0.00022789938,"MEAN_MOTION_DOT":-7.3e-7,"MEAN_MOTION_DDOT":0},{"OBJECT_NAME":"ONEWEB-0235","OBJECT_ID":"2021-045E","EPOCH":"2025-09-27T15:42:25.919424","MEAN_MOTION":13.15550117,"ECCENTRICITY":0.00014314,"INCLINATION":87.9002,"RA_OF_ASC_NODE":311.5762,"ARG_OF_PERICENTER":108.6243,"MEAN_ANOMALY":251.5043,"EPHEMERIS_TYPE":0,"CLASSIFICATION_TYPE":"U","NORAD_CAT_ID":48771,"ELEMENT_SET_NO":999,"REV_AT_EPOCH":20986,"BSTAR":0.0001957239,"MEAN_MOTION_DOT":8.7e-7,"MEAN_MOTION_DDOT":0},{"OBJECT_NAME":"ONEWEB-0242","OBJECT_ID":"2021-045F","EPOCH":"2025-09-27T15:33:16.259904","MEAN_MOTION":13.15549646,"ECCENTRICITY":0.00016233,"INCLINATION":87.9008,"RA_OF_ASC_NODE":311.5652,"ARG_OF_PERICENTER":93.8546,"MEAN_ANOMALY":266.277,"EPHEMERIS_TYPE":0,"CLASSIFICATION_TYPE":"U","NORAD_CAT_ID":48772,"ELEMENT_SET_NO":999,"REV_AT_EPOCH":20990,"BSTAR":0.00027727806,"MEAN_MOTION_DOT":1.17e-6,"MEAN_MOTION_DDOT":0},{"OBJECT_NAME":"ONEWEB-0241","OBJECT_ID":"2021-045G","EPOCH":"2025-09-28T04:01:41.179008","MEAN_MOTION":13.15549629,"ECCENTRICITY":0.00017296,"INCLINATION":87.8993,"RA_OF_ASC_NODE":311.5072,"ARG_OF_PERICENTER":110.1799,"MEAN_ANOMALY":249.9517,"EPHEMERIS_TYPE":0,"CLASSIFICATION_TYPE":"U","NORAD_CAT_ID":48773,"ELEMENT_SET_NO":999,"REV_AT_EPOCH":20988,"BSTAR":0.00022186362,"MEAN_MOTION_DOT":9.6e-7,"MEAN_MOTION_DDOT":0},{"OBJECT_NAME":"ONEWEB-0243","OBJECT_ID":"2021-045H","EPOCH":"2025-09-28T04:47:18.991968","MEAN_MOTION":13.15546911,"ECCENTRICITY":0.00014208,"INCLINATION":87.9008,"RA_OF_ASC_NODE":311.505,"ARG_OF_PERICENTER":99.6993,"MEAN_ANOMALY":260.4298,"EPHEMERIS_TYPE":0,"CLASSIFICATION_TYPE":"U","NORAD_CAT_ID":48774,"ELEMENT_SET_NO":999,"REV_AT_EPOCH":20991,"BSTAR":-6.388229e-6,"MEAN_MOTION_DOT":1.0e-7,"MEAN_MOTION_DDOT":0},{"OBJECT_NAME":"ONEWEB-0222","OBJECT_ID":"2021-045J","EPOCH":"2025-09-28T02:33:51.604128","MEAN_MOTION":13.15547398,"ECCENTRICITY":0.0001718,"INCLINATION":87.9008,"RA_OF_ASC_NODE":311.4756,"ARG_OF_PERICENTER":100.0997,"MEAN_ANOMALY":260.0327,"EPHEMERIS_TYPE":0,"CLASSIFICATION_TYPE":"U","NORAD_CAT_ID":48775,"ELEMENT_SET_NO":999,"REV_AT_EPOCH":20994,"BSTAR":0.00045856398,"MEAN_MOTION_DOT":1.85e-6,"MEAN_MOTION_DDOT":0},{"OBJECT_NAME":"ONEWEB-0244","OBJECT_ID":"2021-045K","EPOCH":"2025-09-28T01:21:56.808000","MEAN_MOTION":13.15546948,"ECCENTRICITY":0.00016376,"INCLINATION":87.9012,"RA_OF_ASC_NODE":311.4684,"ARG_OF_PERICENTER":95.1561,"MEAN_ANOMALY":264.9756,"EPHEMERIS_TYPE":0,"CLASSIFICATION_TYPE":"U","NORAD_CAT_ID":48776,"ELEMENT_SET_NO":999,"REV_AT_EPOCH":21050,"BSTAR":-0.00065528247,"MEAN_MOTION_DOT":-2.34e-6,"MEAN_MOTION_DDOT":0},{"OBJECT_NAME":"ONEWEB-0247","OBJECT_ID":"2021-045L","EPOCH":"2025-09-28T03:06:55.516608","MEAN_MOTION":13.15547751,"ECCENTRICITY":9.268e-5,"INCLINATION":87.9,"RA_OF_ASC_NODE":311.521,"ARG_OF_PERICENTER":114.4965,"MEAN_ANOMALY":245.6262,"EPHEMERIS_TYPE":0,"CLASSIFICATION_TYPE":"U","NORAD_CAT_ID":48777,"ELEMENT_SET_NO":999,"REV_AT_EPOCH":20995,"BSTAR":0.00015529574,"MEAN_MOTION_DOT":7.1e-7,"MEAN_MOTION_DDOT":0},{"OBJECT_NAME":"ONEWEB-0245","OBJECT_ID":"2021-045M","EPOCH":"2025-09-28T03:00:05.804352","MEAN_MOTION":13.15548181,"ECCENTRICITY":0.00018896,"INCLINATION":87.9001,"RA_OF_ASC_NODE":311.4859,"ARG_OF_PERICENTER":102.5636,"MEAN_ANOMALY":257.5706,"EPHEMERIS_TYPE":0,"CLASSIFICATION_TYPE":"U","NORAD_CAT_ID":48778,"ELEMENT_SET_NO":999,"REV_AT_EPOCH":20992,"BSTAR":0.00025946957,"MEAN_MOTION_DOT":1.11e-6,"MEAN_MOTION_DDOT":0},{"OBJECT_NAME":"ONEWEB-0229","OBJECT_ID":"2021-045N","EPOCH":"2025-09-28T02:53:14.354592","MEAN_MOTION":13.15547272,"ECCENTRICITY":0.00016732,"INCLINATION":87.9,"RA_OF_ASC_NODE":311.4865,"ARG_OF_PERICENTER":93.6777,"MEAN_ANOMALY":266.4545,"EPHEMERIS_TYPE":0,"CLASSIFICATION_TYPE":"U","NORAD_CAT_ID":48779,"ELEMENT_SET_NO":999,"REV_AT_EPOCH":20995,"BSTAR":0.00026517677,"MEAN_MOTION_DOT":1.13e-6,"MEAN_MOTION_DDOT":0},{"OBJECT_NAME":"ONEWEB-0228","OBJECT_ID":"2021-045P","EPOCH":"2025-09-28T03:41:21.176448","MEAN_MOTION":13.15545963,"ECCENTRICITY":0.00016979,"INCLINATION":87.9005,"RA_OF_ASC_NODE":311.4562,"ARG_OF_PERICENTER":95.9992,"MEAN_ANOMALY":264.1332,"EPHEMERIS_TYPE":0,"CLASSIFICATION_TYPE":"U","NORAD_CAT_ID":48780,"ELEMENT_SET_NO":999,"REV_AT_EPOCH":20987,"BSTAR":-0.00024420508,"MEAN_MOTION_DOT":-7.9e-7,"MEAN_MOTION_DDOT":0},{"OBJECT_NAME":"ONEWEB-0232","OBJECT_ID":"2021-045Q","EPOCH":"2025-09-28T03:04:39.953280","MEAN_MOTION":13.15548788,"ECCENTRICITY":0.00018127,"INCLINATION":87.9001,"RA_OF_ASC_NODE":311.453,"ARG_OF_PERICENTER":96.1027,"MEAN_ANOMALY":264.031,"EPHEMERIS_TYPE":0,"CLASSIFICATION_TYPE":"U","NORAD_CAT_ID":48781,"ELEMENT_SET_NO":999,"REV_AT_EPOCH":21019,"BSTAR":0.00020549763,"MEAN_MOTION_DOT":9.0e-7,"MEAN_MOTION_DDOT":0}]
