ONEWEB-0217             
1 48245U 21031AM  25271.21803572 -.00000008  00000+0 -55374-4 0  9992
2 48245  87.9078 341.8516 0001955 108.7487 251.3855 13.14501873213768
ONEWEB-0211             
1 48767U 21045A   25271.14166842 -.00000097  00000+0 -29057-3 0  9996
2 48767  87.9010 311.4233 0001630 103.6686 256.4626 13.16085406209978
ONEWEB-0223             
1 48768U 21045B   25271.09971580  .00000197  00000+0  48951-3 0  9997
2 48768  87.9001 311.4868 0001488 107.3889 252.7404 13.15547808209948
ONEWEB-0230             
1 48769U 21045C   25271.14723960 -.00000067  00000+0 -21090-3 0  9994
2 48769  87.8995 311.5095 0001789  90.0666 270.0670 13.15549638210211
ONEWEB-0237             
1 48770U 21045D   25271.06009508 -.00000073  00000+0 -22790-3 0  9997
2 48770  87.9003 311.5237 0001564  98.5917 261.5390 13.15546873209923
ONEWEB-0235             
1 48771U 21045E   25270.65446666  .00000087  00000+0  19572-3 0  9999
2 48771  87.9002 311.5762 0001431 108.6243 251.5043 13.15550117209867
ONEWEB-0242             
1 48772U 21045F   25270.64810486  .00000117  00000+0  27728-3 0  9990
2 48772  87.9008 311.5652 0001623  93.8546 266.2770 13.15549646209906
ONEWEB-0241             
1 48773U 21045G   25271.16783772  .00000096  00000+0  22186-3 0  9995
2 48773  87.8993 311.5072 0001729 110.1799 249.9517 13.15549629209880
ONEWEB-0243             
1 48774U 21045H   25271.19952537  .00000010  00000+0 -63882-5 0  9993
2 48774  87.9008 311.5050 0001420  99.6993 260.4298 13.15546911209919
ONEWEB-0222             
1 48775U 21045J   25271.10684727  .00000185  00000+0  45856-3 0  9999
2 48775  87.9008 311.4756 0001718 100.0997 260.0327 13.15547398209945
ONEWEB-0244             
1 48776U 21045K   25271.05690750 -.00000234  00000+0 -65528-3 0  9992
2 48776  87.9012 311.4684 0001637  95.1561 264.9756 13.15546948210505
ONEWEB-0247             
1 48777U 21045L   25271.12980922  .00000071  00000+0  15530-3 0  9999
2 48777  87.9000 311.5210 0000926 114.4965 245.6262 13.15547751209950
ONEWEB-0245             
1 48778U 21045M   25271.12506718  .00000111  00000+0  25947-3 0  9995
2 48778  87.9001 311.4859 0001889 102.5636 257.5706 13.15548181209922
ONEWEB-0229             
1 48779U 21045N   25271.12030503  .00000113  00000+0  26518-3 0  9997
2 48779  87.9000 311.4865 0001673  93.6777 266.4545 13.15547272209959
ONEWEB-0228             
1 48780U 21045P   25271.15371732 -.00000079  00000+0 -24421-3 0  9998
2 48780  87.9005 311.4562 0001697  95.9992 264.1332 13.15545963209875
ONEWEB-0232             
1 48781U 21045Q   25271.12824020  .00000090  00000+0  20550-3 0  9999
2 48781  87.9001 311.4530 0001812  96.1027 264.0310 13.15548788210198
